ONEWEB-0228             
1 48780U 21045P   23356.25651144  .00000031  00000+0  49037-4 0  9996
2 48780  87.9000  79.9261 0001652 110.0964 250.0344 13.15541898124956
